H1 CPF  2  DGF 2025 04 17 18 107 02 lares2     NONE      
H2  2208001 5988    53105 2024 03 17 00 00 00 2024 03 24 00 00 00    60 1 1  0 0 0 1
H5  0.1740
H9
10 0 60392      0.000000  0      -9249676.106      -7166436.306       3660018.850
10 0 60392     60.000000  0      -9279037.261      -7278013.830       3353448.382
10 0 60392    120.000000  0      -9302300.685      -7383832.259       3044263.950
10 0 60392    180.000000  0      -9319398.394      -7483865.022       2732706.622
10 0 60392    240.000000  0      -9330266.906      -7578090.545       2419019.311
10 0 60392    300.000000  0      -9334847.329      -7666492.226       2103446.584
10 0 60392    360.000000  0      -9333085.451      -7749058.409       1786234.462
10 0 60392    420.000000  0      -9324931.824      -7825782.351       1467630.234
10 0 60392    480.000000  0      -9310341.845      -7896662.185       1147882.254
10 0 60392    540.000000  0      -9289275.827      -7961700.880        827239.750
10 0 60392    600.000000  0      -9261699.075      -8020906.193        505952.624
10 0 60392    660.000000  0      -9227581.950      -8074290.621        184271.254
10 0 60392    720.000000  0      -9186899.932      -8121871.348       -137553.701
10 0 60392    780.000000  0      -9139633.680      -8163670.180       -459271.501
10 0 60392    840.000000  0      -9085769.083      -8199713.488       -780631.525
10 0 60392    900.000000  0      -9025297.308      -8230032.139      -1101383.464
10 0 60392    960.000000  0      -8958214.844      -8254661.426      -1421277.522
10 0 60392   1020.000000  0      -8884523.545      -8273640.992      -1740064.613
10 0 60392   1080.000000  0      -8804230.657      -8287014.750      -2057496.554
10 0 60392   1140.000000  0      -8717348.854      -8294830.806      -2373326.265
10 0 60392   1200.000000  0      -8623896.255      -8297141.367      -2687307.960
10 0 60392   1260.000000  0      -8523896.450      -8294002.657      -2999197.339
10 0 60392   1320.000000  0      -8417378.510      -8285474.822      -3308751.784
10 0 60392   1380.000000  0      -8304376.997      -8271621.833      -3615730.545
10 0 60392   1440.000000  0      -8184931.968      -8252511.391      -3919894.931
10 0 60392   1500.000000  0      -8059088.973      -8228214.823      -4221008.494
10 0 60392   1560.000000  0      -7926899.052      -8198806.978      -4518837.217
10 0 60392   1620.000000  0      -7788418.716      -8164366.120      -4813149.695
10 0 60392   1680.000000  0      -7643709.939      -8124973.818      -5103717.312
10 0 60392   1740.000000  0      -7492840.131      -8080714.836      -5390314.426
10 0 60392   1800.000000  0      -7335882.114      -8031677.015      -5672718.535
10 0 60392   1860.000000  0      -7172914.088      -7977951.161      -5950710.457
10 0 60392   1920.000000  0      -7004019.593      -7919630.925      -6224074.496
10 0 60392   1980.000000  0      -6829287.474      -7856812.681      -6492598.608
10 0 60392   2040.000000  0      -6648811.823      -7789595.408      -6756074.567
10 0 60392   2100.000000  0      -6462691.937      -7718080.565      -7014298.122
10 0 60392   2160.000000  0      -6271032.255      -7642371.964      -7267069.158
10 0 60392   2220.000000  0      -6073942.300      -7562575.650      -7514191.845
10 0 60392   2280.000000  0      -5871536.610      -7478799.769      -7755474.790
10 0 60392   2340.000000  0      -5663934.667      -7391154.442      -7990731.185
10 0 60392   2400.000000  0      -5451260.822      -7299751.637      -8219778.944
10 0 60392   2460.000000  0      -5233644.213      -7204705.041      -8442440.847
10 0 60392   2520.000000  0      -5011218.682      -7106129.925      -8658544.673
10 0 60392   2580.000000  0      -4784122.682      -7004143.023      -8867923.328
10 0 60392   2640.000000  0      -4552499.186      -6898862.392      -9070414.974
10 0 60392   2700.000000  0      -4316495.586      -6790407.291      -9265863.150
10 0 60392   2760.000000  0      -4076263.591      -6678898.043      -9454116.890
10 0 60392   2820.000000  0      -3831959.121      -6564455.912      -9635030.836
10 0 60392   2880.000000  0      -3583742.193      -6447202.969      -9808465.348
10 0 60392   2940.000000  0      -3331776.812      -6327261.964      -9974286.607
10 0 60392   3000.000000  0      -3076230.844      -6204756.200     -10132366.717
10 0 60392   3060.000000  0      -2817275.900      -6079809.402     -10282583.797
10 0 60392   3120.000000  0      -2555087.204      -5952545.595     -10424822.075
10 0 60392   3180.000000  0      -2289843.468      -5823088.973     -10558971.972
10 0 60392   3240.000000  0      -2021726.755      -5691563.781     -10684930.185
10 0 60392   3300.000000  0      -1750922.344      -5558094.186     -10802599.758
10 0 60392   3360.000000  0      -1477618.587      -5422804.159     -10911890.160
10 0 60392   3420.000000  0      -1202006.769      -5285817.356     -11012717.348
10 0 60392   3480.000000  0       -924280.959      -5147256.994     -11105003.830
10 0 60392   3540.000000  0       -644637.861      -5007245.742     -11188678.720
10 0 60392   3600.000000  0       -363276.665      -4865905.599     -11263677.790
10 0 60392   3660.000000  0        -80398.886      -4723357.789     -11329943.518
10 0 60392   3720.000000  0        203791.789      -4579722.642     -11387425.130
10 0 60392   3780.000000  0        489089.661      -4435119.491     -11436078.633
10 0 60392   3840.000000  0        775287.184      -4289666.566     -11475866.850
10 0 60392   3900.000000  0       1062175.125      -4143480.885     -11506759.447
10 0 60392   3960.000000  0       1349542.737      -3996678.160     -11528732.951
10 0 60392   4020.000000  0       1637177.920      -3849372.691     -11541770.768
10 0 60392   4080.000000  0       1924867.397      -3701677.276     -11545863.196
10 0 60392   4140.000000  0       2212396.884      -3553703.112     -11541007.427
10 0 60392   4200.000000  0       2499551.260      -3405559.708     -11527207.553
10 0 60392   4260.000000  0       2786114.749      -3257354.797     -11504474.556
10 0 60392   4320.000000  0       3071871.089      -3109194.248     -11472826.307
10 0 60392   4380.000000  0       3356603.712      -2961181.988     -11432287.542
10 0 60392   4440.000000  0       3640095.923      -2813419.920     -11382889.850
10 0 60392   4500.000000  0       3922131.077      -2666007.848     -11324671.646
10 0 60392   4560.000000  0       4202492.760      -2519043.407     -11257678.141
10 0 60392   4620.000000  0       4480964.967      -2372621.989     -11181961.310
10 0 60392   4680.000000  0       4757332.285      -2226836.680     -11097579.850
10 0 60392   4740.000000  0       5031380.072      -2081778.197     -11004599.134
10 0 60392   4800.000000  0       5302894.636      -1937534.828     -10903091.168
10 0 60392   4860.000000  0       5571663.421      -1794192.374     -10793134.530
10 0 60392   4920.000000  0       5837475.180      -1651834.100     -10674814.315
10 0 60392   4980.000000  0       6100120.161      -1510540.684     -10548222.069
10 0 60392   5040.000000  0       6359390.285      -1370390.169     -10413455.720
10 0 60392   5100.000000  0       6615079.320      -1231457.926     -10270619.505
10 0 60392   5160.000000  0       6866983.065      -1093816.610     -10119823.893
10 0 60392   5220.000000  0       7114899.525       -957536.126      -9961185.498
10 0 60392   5280.000000  0       7358629.084       -822683.602      -9794826.995
10 0 60392   5340.000000  0       7597974.681       -689323.355      -9620877.027
10 0 60392   5400.000000  0       7832741.984       -557516.868      -9439470.107
10 0 60392   5460.000000  0       8062739.560       -427322.772      -9250746.514
10 0 60392   5520.000000  0       8287779.043       -298796.825      -9054852.195
10 0 60392   5580.000000  0       8507675.303       -171991.900      -8851938.647
10 0 60392   5640.000000  0       8722246.610        -46957.974      -8642162.807
10 0 60392   5700.000000  0       8931314.799         76257.876      -8425686.931
10 0 60392   5760.000000  0       9134705.426        197611.482      -8202678.472
10 0 60392   5820.000000  0       9332247.933        317061.580      -7973309.955
10 0 60392   5880.000000  0       9523775.794        434569.804      -7737758.843
10 0 60392   5940.000000  0       9709126.676        550100.688      -7496207.405
10 0 60392   6000.000000  0       9888142.582        663621.645      -7248842.575
10 0 60392   6060.000000  0      10060669.999        775102.959      -6995855.811
10 0 60392   6120.000000  0      10226560.041        884517.767      -6737442.950
10 0 60392   6180.000000  0      10385668.588        991842.034      -6473804.057
10 0 60392   6240.000000  0      10537856.420       1097054.535      -6205143.275
10 0 60392   6300.000000  0      10682989.350       1200136.826      -5931668.664
10 0 60392   6360.000000  0      10820938.350       1301073.209      -5653592.047
10 0 60392   6420.000000  0      10951579.679       1399850.704      -5371128.843
10 0 60392   6480.000000  0      11074794.994       1496459.012      -5084497.906
10 0 60392   6540.000000  0      11190471.476       1590890.470      -4793921.354
10 0 60392   6600.000000  0      11298501.929       1683140.017      -4499624.399
10 0 60392   6660.000000  0      11398784.896       1773205.140      -4201835.174
10 0 60392   6720.000000  0      11491224.755       1861085.831      -3900784.557
10 0 60392   6780.000000  0      11575731.815       1946784.537      -3596705.991
10 0 60392   6840.000000  0      11652222.411       2030306.101      -3289835.306
10 0 60392   6900.000000  0      11720618.988       2111657.711      -2980410.536
10 0 60392   6960.000000  0      11780850.183       2190848.839      -2668671.734
10 0 60392   7020.000000  0      11832850.902       2267891.180      -2354860.787
10 0 60392   7080.000000  0      11876562.387       2342798.589      -2039221.226
10 0 60392   7140.000000  0      11911932.290       2415587.018      -1721998.042
99